ELECTRON KICK STAGE R/B 
1 67616U 26019C   26031.75998387  .00037009  25655-5  21952-3 0  9991
2 67616  97.4031 156.7817 0207820 255.9499 101.8576 15.53913180   261
